[{"OBJECT_NAME":"HIBARI","OBJECT_ID":"2021-102F","EPOCH":"2026-03-09T16:55:51.090816","MEAN_MOTION":15.29554512,"ECCENTRICITY":0.00120742,"INCLINATION":97.3381,"RA_OF_ASC_NODE":115.826,"ARG_OF_PERICENTER":186.5211,"MEAN_ANOMALY":173.5875,"EPHEMERIS_TYPE":0,"CLASSIFICATION_TYPE":"U","NORAD_CAT_ID":49400,"ELEMENT_SET_NO":999,"REV_AT_EPOCH":23897,"BSTAR":0.00042758039,"MEAN_MOTION_DOT":0.00012206,"MEAN_MOTION_DDOT":0},{"OBJECT_NAME":"STARLINK-32141","OBJECT_ID":"2024-132N","EPOCH":"2026-03-09T23:14:19.595904","MEAN_MOTION":15.30192229,"ECCENTRICITY":0.00012497,"INCLINATION":53.1609,"RA_OF_ASC_NODE":51.0931,"ARG_OF_PERICENTER":89.1535,"MEAN_ANOMALY":270.9609,"EPHEMERIS_TYPE":0,"CLASSIFICATION_TYPE":"U","NORAD_CAT_ID":60290,"ELEMENT_SET_NO":999,"REV_AT_EPOCH":9160,"BSTAR":4.4243518e-5,"MEAN_MOTION_DOT":9.51e-6,"MEAN_MOTION_DDOT":0}]
